IONOSFERA-M 3           
1 64876U 25155A   26095.88587258  .00000100  00000+0  65484-4 0  9993
2 64876  98.5970  59.6371 0002457  76.1576 283.9875 14.21473515 36130
IONOSFERA-M 4           
1 64877U 25155B   26095.85042681  .00000123  00000+0  75890-4 0  9994
2 64877  98.5964  59.5207 0001810  74.4745 285.6633 14.21475457 36129
MICROCARB               
1 64899U 25156A   26095.76965647  .00000970  00000+0  16118-3 0  9992
2 64899  97.9851 174.1973 0017327 140.4673 219.7802 14.72247900 37313
CO3D 3                  
1 64900U 25156B   26090.51674821  .00000117  00000+0  85126-5 0  9994
2 64900  97.4337 170.3268 0002068 103.1490 256.9977 15.20193533 37732
CO3D 4                  
1 64901U 25156C   26094.86120377  .00002274  00000+0  10814-3 0  9995
2 64901  97.4323 174.6072 0001402 137.4890 222.6454 15.20205421 38396
CO3D 2                  
1 64902U 25156D   26093.18234204  .00011547  00000+0  51813-3 0  9992
2 64902  97.6520 173.3642 0063279 311.0942  48.4837 15.19537740 38136
CO3D 1                  
1 64903U 25156E   26093.24825721  .00029003  00000+0  13154-2 0  9991
2 64903  97.4393 173.0315 0023021 357.4030   2.7082 15.20542090 38142
SENTINEL-6B             
1 66514U 25264A   26095.86561524 -.00000052  00000+0  39024-4 0  9999
2 66514  66.0400 285.3930 0007896 270.3232  89.6879 12.80930502 17903
CSG-3                   
1 67304U 26001A   26095.82773366  .00000587  00000+0  80278-4 0  9991
2 67304  97.8884 280.4746 0001374  87.0623 273.0747 14.82159207 13742
