[{"OBJECT_NAME":"IONOSFERA-M 3","OBJECT_ID":"2025-155A","EPOCH":"2026-04-05T21:15:39.390912","MEAN_MOTION":14.21473515,"ECCENTRICITY":0.0002457,"INCLINATION":98.597,"RA_OF_ASC_NODE":59.6371,"ARG_OF_PERICENTER":76.1576,"MEAN_ANOMALY":283.9875,"EPHEMERIS_TYPE":0,"CLASSIFICATION_TYPE":"U","NORAD_CAT_ID":64876,"ELEMENT_SET_NO":999,"REV_AT_EPOCH":3613,"BSTAR":6.5484e-5,"MEAN_MOTION_DOT":1.0e-6,"MEAN_MOTION_DDOT":0},{"OBJECT_NAME":"IONOSFERA-M 4","OBJECT_ID":"2025-155B","EPOCH":"2026-04-05T20:24:36.876384","MEAN_MOTION":14.21475457,"ECCENTRICITY":0.000181,"INCLINATION":98.5964,"RA_OF_ASC_NODE":59.5207,"ARG_OF_PERICENTER":74.4745,"MEAN_ANOMALY":285.6633,"EPHEMERIS_TYPE":0,"CLASSIFICATION_TYPE":"U","NORAD_CAT_ID":64877,"ELEMENT_SET_NO":999,"REV_AT_EPOCH":3612,"BSTAR":7.589e-5,"MEAN_MOTION_DOT":1.23e-6,"MEAN_MOTION_DDOT":0},{"OBJECT_NAME":"MICROCARB","OBJECT_ID":"2025-156A","EPOCH":"2026-04-05T18:28:18.319008","MEAN_MOTION":14.722479,"ECCENTRICITY":0.0017327,"INCLINATION":97.9851,"RA_OF_ASC_NODE":174.1973,"ARG_OF_PERICENTER":140.4673,"MEAN_ANOMALY":219.7802,"EPHEMERIS_TYPE":0,"CLASSIFICATION_TYPE":"U","NORAD_CAT_ID":64899,"ELEMENT_SET_NO":999,"REV_AT_EPOCH":3731,"BSTAR":0.00016118,"MEAN_MOTION_DOT":9.7e-6,"MEAN_MOTION_DDOT":0},{"OBJECT_NAME":"CO3D 3","OBJECT_ID":"2025-156B","EPOCH":"2026-03-31T12:24:07.045344","MEAN_MOTION":15.20193533,"ECCENTRICITY":0.00020689,"INCLINATION":97.4337,"RA_OF_ASC_NODE":170.3268,"ARG_OF_PERICENTER":103.149,"MEAN_ANOMALY":256.9977,"EPHEMERIS_TYPE":0,"CLASSIFICATION_TYPE":"U","NORAD_CAT_ID":64900,"ELEMENT_SET_NO":999,"REV_AT_EPOCH":3773,"BSTAR":8.512647e-6,"MEAN_MOTION_DOT":1.17e-6,"MEAN_MOTION_DDOT":0},{"OBJECT_NAME":"CO3D 4","OBJECT_ID":"2025-156C","EPOCH":"2026-04-04T20:40:08.005728","MEAN_MOTION":15.20205421,"ECCENTRICITY":0.00014024,"INCLINATION":97.4323,"RA_OF_ASC_NODE":174.6072,"ARG_OF_PERICENTER":137.489,"MEAN_ANOMALY":222.6454,"EPHEMERIS_TYPE":0,"CLASSIFICATION_TYPE":"U","NORAD_CAT_ID":64901,"ELEMENT_SET_NO":999,"REV_AT_EPOCH":3839,"BSTAR":0.00010813851,"MEAN_MOTION_DOT":2.274e-5,"MEAN_MOTION_DDOT":0},{"OBJECT_NAME":"CO3D 2","OBJECT_ID":"2025-156D","EPOCH":"2026-04-03T04:22:34.352256","MEAN_MOTION":15.1953774,"ECCENTRICITY":0.00632796,"INCLINATION":97.652,"RA_OF_ASC_NODE":173.3642,"ARG_OF_PERICENTER":311.0942,"MEAN_ANOMALY":48.4837,"EPHEMERIS_TYPE":0,"CLASSIFICATION_TYPE":"U","NORAD_CAT_ID":64902,"ELEMENT_SET_NO":999,"REV_AT_EPOCH":3813,"BSTAR":0.00051812883,"MEAN_MOTION_DOT":0.00011547,"MEAN_MOTION_DDOT":0},{"OBJECT_NAME":"CO3D 1","OBJECT_ID":"2025-156E","EPOCH":"2026-04-03T05:57:29.422944","MEAN_MOTION":15.2054209,"ECCENTRICITY":0.0023021,"INCLINATION":97.4393,"RA_OF_ASC_NODE":173.0315,"ARG_OF_PERICENTER":357.403,"MEAN_ANOMALY":2.7082,"EPHEMERIS_TYPE":0,"CLASSIFICATION_TYPE":"U","NORAD_CAT_ID":64903,"ELEMENT_SET_NO":999,"REV_AT_EPOCH":3814,"BSTAR":0.0013154,"MEAN_MOTION_DOT":0.00029003,"MEAN_MOTION_DDOT":0},{"OBJECT_NAME":"SENTINEL-6B","OBJECT_ID":"2025-264A","EPOCH":"2026-04-05T20:46:29.156736","MEAN_MOTION":12.80930502,"ECCENTRICITY":0.0007896,"INCLINATION":66.04,"RA_OF_ASC_NODE":285.393,"ARG_OF_PERICENTER":270.3232,"MEAN_ANOMALY":89.6879,"EPHEMERIS_TYPE":0,"CLASSIFICATION_TYPE":"U","NORAD_CAT_ID":66514,"ELEMENT_SET_NO":999,"REV_AT_EPOCH":1790,"BSTAR":3.9024e-5,"MEAN_MOTION_DOT":-5.2e-7,"MEAN_MOTION_DDOT":0},{"OBJECT_NAME":"CSG-3","OBJECT_ID":"2026-001A","EPOCH":"2026-04-05T19:51:56.188224","MEAN_MOTION":14.82159207,"ECCENTRICITY":0.0001374,"INCLINATION":97.8884,"RA_OF_ASC_NODE":280.4746,"ARG_OF_PERICENTER":87.0623,"MEAN_ANOMALY":273.0747,"EPHEMERIS_TYPE":0,"CLASSIFICATION_TYPE":"U","NORAD_CAT_ID":67304,"ELEMENT_SET_NO":999,"REV_AT_EPOCH":1374,"BSTAR":8.0278e-5,"MEAN_MOTION_DOT":5.87e-6,"MEAN_MOTION_DDOT":0}]
